[{"OBJECT_NAME":"HULIANWANG DIGUI-81","OBJECT_ID":"2025-187J","EPOCH":"2026-03-07T08:03:46.393632","MEAN_MOTION":13.29341568,"ECCENTRICITY":0.0001054,"INCLINATION":50.0058,"RA_OF_ASC_NODE":211.1182,"ARG_OF_PERICENTER":144.3752,"MEAN_ANOMALY":215.719,"EPHEMERIS_TYPE":0,"CLASSIFICATION_TYPE":"U","NORAD_CAT_ID":65313,"ELEMENT_SET_NO":999,"REV_AT_EPOCH":2616,"BSTAR":9.0112444e-5,"MEAN_MOTION_DOT":-8.2e-7,"MEAN_MOTION_DDOT":0},{"OBJECT_NAME":"HULIANWANG DIGUI-82","OBJECT_ID":"2025-220A","EPOCH":"2026-03-07T07:48:42.694560","MEAN_MOTION":13.24421996,"ECCENTRICITY":0.00022845,"INCLINATION":86.4898,"RA_OF_ASC_NODE":78.2639,"ARG_OF_PERICENTER":98.8874,"MEAN_ANOMALY":261.2518,"EPHEMERIS_TYPE":0,"CLASSIFICATION_TYPE":"U","NORAD_CAT_ID":65817,"ELEMENT_SET_NO":999,"REV_AT_EPOCH":2143,"BSTAR":2.3255523e-5,"MEAN_MOTION_DOT":2.5e-7,"MEAN_MOTION_DDOT":0},{"OBJECT_NAME":"HULIANWANG DIGUI-83","OBJECT_ID":"2025-220B","EPOCH":"2026-03-07T05:49:07.017312","MEAN_MOTION":13.24421188,"ECCENTRICITY":0.00022725,"INCLINATION":86.492,"RA_OF_ASC_NODE":78.3227,"ARG_OF_PERICENTER":98.9942,"MEAN_ANOMALY":261.1449,"EPHEMERIS_TYPE":0,"CLASSIFICATION_TYPE":"U","NORAD_CAT_ID":65818,"ELEMENT_SET_NO":999,"REV_AT_EPOCH":2142,"BSTAR":2.3688603e-5,"MEAN_MOTION_DOT":2.5e-7,"MEAN_MOTION_DDOT":0},{"OBJECT_NAME":"HULIANWANG DIGUI-84","OBJECT_ID":"2025-220C","EPOCH":"2026-03-07T05:38:11.887584","MEAN_MOTION":13.24421589,"ECCENTRICITY":0.00022654,"INCLINATION":86.4858,"RA_OF_ASC_NODE":78.2151,"ARG_OF_PERICENTER":98.5082,"MEAN_ANOMALY":261.6309,"EPHEMERIS_TYPE":0,"CLASSIFICATION_TYPE":"U","NORAD_CAT_ID":65819,"ELEMENT_SET_NO":999,"REV_AT_EPOCH":2142,"BSTAR":9.9016e-6,"MEAN_MOTION_DOT":1.9e-7,"MEAN_MOTION_DDOT":0},{"OBJECT_NAME":"HULIANWANG DIGUI-85","OBJECT_ID":"2025-220D","EPOCH":"2026-03-07T07:16:02.440128","MEAN_MOTION":13.24422121,"ECCENTRICITY":0.00022662,"INCLINATION":86.4919,"RA_OF_ASC_NODE":78.2873,"ARG_OF_PERICENTER":99.214,"MEAN_ANOMALY":260.925,"EPHEMERIS_TYPE":0,"CLASSIFICATION_TYPE":"U","NORAD_CAT_ID":65820,"ELEMENT_SET_NO":999,"REV_AT_EPOCH":2143,"BSTAR":6.1130634e-5,"MEAN_MOTION_DOT":4.1e-7,"MEAN_MOTION_DDOT":0},{"OBJECT_NAME":"HULIANWANG DIGUI-86","OBJECT_ID":"2025-220E","EPOCH":"2026-03-07T07:05:17.453760","MEAN_MOTION":13.24420968,"ECCENTRICITY":0.00022589,"INCLINATION":86.4897,"RA_OF_ASC_NODE":78.2481,"ARG_OF_PERICENTER":98.8942,"MEAN_ANOMALY":261.2448,"EPHEMERIS_TYPE":0,"CLASSIFICATION_TYPE":"U","NORAD_CAT_ID":65821,"ELEMENT_SET_NO":999,"REV_AT_EPOCH":2143,"BSTAR":8.2495036e-5,"MEAN_MOTION_DOT":5.0e-7,"MEAN_MOTION_DDOT":0},{"OBJECT_NAME":"HULIANWANG DIGUI-87","OBJECT_ID":"2025-231A","EPOCH":"2026-03-07T07:07:57.061344","MEAN_MOTION":13.29330451,"ECCENTRICITY":6.125e-5,"INCLINATION":49.9992,"RA_OF_ASC_NODE":181.3042,"ARG_OF_PERICENTER":193.0944,"MEAN_ANOMALY":166.9912,"EPHEMERIS_TYPE":0,"CLASSIFICATION_TYPE":"U","NORAD_CAT_ID":65995,"ELEMENT_SET_NO":999,"REV_AT_EPOCH":1933,"BSTAR":0.00013328167,"MEAN_MOTION_DOT":-6.2e-7,"MEAN_MOTION_DDOT":0},{"OBJECT_NAME":"HULIANWANG DIGUI-88","OBJECT_ID":"2025-231B","EPOCH":"2026-03-07T07:20:00.843648","MEAN_MOTION":13.29329434,"ECCENTRICITY":6.407e-5,"INCLINATION":49.9979,"RA_OF_ASC_NODE":181.3339,"ARG_OF_PERICENTER":198.3115,"MEAN_ANOMALY":161.7734,"EPHEMERIS_TYPE":0,"CLASSIFICATION_TYPE":"U","NORAD_CAT_ID":65996,"ELEMENT_SET_NO":999,"REV_AT_EPOCH":1933,"BSTAR":0.00010596049,"MEAN_MOTION_DOT":-7.5e-7,"MEAN_MOTION_DDOT":0},{"OBJECT_NAME":"HULIANWANG DIGUI-89","OBJECT_ID":"2025-231C","EPOCH":"2026-03-07T06:55:55.153920","MEAN_MOTION":13.29330104,"ECCENTRICITY":6.392e-5,"INCLINATION":49.9957,"RA_OF_ASC_NODE":181.2209,"ARG_OF_PERICENTER":199.5956,"MEAN_ANOMALY":160.4892,"EPHEMERIS_TYPE":0,"CLASSIFICATION_TYPE":"U","NORAD_CAT_ID":65997,"ELEMENT_SET_NO":999,"REV_AT_EPOCH":1933,"BSTAR":0.00011757066,"MEAN_MOTION_DOT":-6.9e-7,"MEAN_MOTION_DDOT":0},{"OBJECT_NAME":"HULIANWANG DIGUI-90","OBJECT_ID":"2025-231D","EPOCH":"2026-03-07T06:43:53.381280","MEAN_MOTION":13.29330326,"ECCENTRICITY":6.069e-5,"INCLINATION":49.9986,"RA_OF_ASC_NODE":181.2111,"ARG_OF_PERICENTER":196.988,"MEAN_ANOMALY":163.0972,"EPHEMERIS_TYPE":0,"CLASSIFICATION_TYPE":"U","NORAD_CAT_ID":65998,"ELEMENT_SET_NO":999,"REV_AT_EPOCH":1933,"BSTAR":0.00012100845,"MEAN_MOTION_DOT":-6.8e-7,"MEAN_MOTION_DDOT":0},{"OBJECT_NAME":"HULIANWANG DIGUI-91","OBJECT_ID":"2025-231E","EPOCH":"2026-03-07T06:31:51.823776","MEAN_MOTION":13.29330329,"ECCENTRICITY":6.314e-5,"INCLINATION":50.0005,"RA_OF_ASC_NODE":181.1921,"ARG_OF_PERICENTER":198.327,"MEAN_ANOMALY":161.7579,"EPHEMERIS_TYPE":0,"CLASSIFICATION_TYPE":"U","NORAD_CAT_ID":65999,"ELEMENT_SET_NO":999,"REV_AT_EPOCH":1933,"BSTAR":0.00014545292,"MEAN_MOTION_DOT":-5.7e-7,"MEAN_MOTION_DDOT":0},{"OBJECT_NAME":"HULIANWANG DIGUI-92","OBJECT_ID":"2025-231F","EPOCH":"2026-03-07T06:19:49.175904","MEAN_MOTION":13.29330843,"ECCENTRICITY":6.39e-5,"INCLINATION":50.0046,"RA_OF_ASC_NODE":181.1944,"ARG_OF_PERICENTER":198.7497,"MEAN_ANOMALY":161.3352,"EPHEMERIS_TYPE":0,"CLASSIFICATION_TYPE":"U","NORAD_CAT_ID":66000,"ELEMENT_SET_NO":999,"REV_AT_EPOCH":1933,"BSTAR":0.00014070277,"MEAN_MOTION_DOT":-5.9e-7,"MEAN_MOTION_DDOT":0},{"OBJECT_NAME":"HULIANWANG DIGUI-93","OBJECT_ID":"2025-231G","EPOCH":"2026-03-07T07:44:04.239456","MEAN_MOTION":13.29329846,"ECCENTRICITY":6.255e-5,"INCLINATION":50.0013,"RA_OF_ASC_NODE":180.8045,"ARG_OF_PERICENTER":198.505,"MEAN_ANOMALY":161.58,"EPHEMERIS_TYPE":0,"CLASSIFICATION_TYPE":"U","NORAD_CAT_ID":66001,"ELEMENT_SET_NO":999,"REV_AT_EPOCH":1934,"BSTAR":0.00011388154,"MEAN_MOTION_DOT":-7.1e-7,"MEAN_MOTION_DDOT":0},{"OBJECT_NAME":"HULIANWANG DIGUI-94","OBJECT_ID":"2025-231H","EPOCH":"2026-03-07T07:56:03.063264","MEAN_MOTION":13.29331043,"ECCENTRICITY":6.409e-5,"INCLINATION":50.0052,"RA_OF_ASC_NODE":180.8929,"ARG_OF_PERICENTER":199.4429,"MEAN_ANOMALY":160.6419,"EPHEMERIS_TYPE":0,"CLASSIFICATION_TYPE":"U","NORAD_CAT_ID":66002,"ELEMENT_SET_NO":999,"REV_AT_EPOCH":1934,"BSTAR":0.00012015443,"MEAN_MOTION_DOT":-6.8e-7,"MEAN_MOTION_DDOT":0},{"OBJECT_NAME":"HULIANWANG DIGUI-95","OBJECT_ID":"2025-231J","EPOCH":"2026-03-07T07:32:15.473472","MEAN_MOTION":13.29325911,"ECCENTRICITY":6.419e-5,"INCLINATION":50.0025,"RA_OF_ASC_NODE":180.7761,"ARG_OF_PERICENTER":195.9366,"MEAN_ANOMALY":164.1486,"EPHEMERIS_TYPE":0,"CLASSIFICATION_TYPE":"U","NORAD_CAT_ID":66003,"ELEMENT_SET_NO":999,"REV_AT_EPOCH":1934,"BSTAR":0.00011043723,"MEAN_MOTION_DOT":-7.3e-7,"MEAN_MOTION_DDOT":0},{"OBJECT_NAME":"HULIANWANG DIGUI-96","OBJECT_ID":"2025-258A","EPOCH":"2026-03-07T00:53:01.778496","MEAN_MOTION":13.29331581,"ECCENTRICITY":4.08e-5,"INCLINATION":50.0047,"RA_OF_ASC_NODE":302.0047,"ARG_OF_PERICENTER":102.6023,"MEAN_ANOMALY":257.4895,"EPHEMERIS_TYPE":0,"CLASSIFICATION_TYPE":"U","NORAD_CAT_ID":66412,"ELEMENT_SET_NO":999,"REV_AT_EPOCH":1614,"BSTAR":0.00012484112,"MEAN_MOTION_DOT":-6.6e-7,"MEAN_MOTION_DDOT":0}]
