HULIANWANG DIGUI-81     
1 65313U 25187J   26066.33595363 -.00000082  00000+0  90112-4 0  9995
2 65313  50.0058 211.1182 0001054 144.3752 215.7190 13.29341568 26162
HULIANWANG DIGUI-82     
1 65817U 25220A   26066.32549415  .00000025  00000+0  23256-4 0  9999
2 65817  86.4898  78.2639 0002284  98.8874 261.2518 13.24421996 21433
HULIANWANG DIGUI-83     
1 65818U 25220B   26066.24244233  .00000025  00000+0  23689-4 0  9991
2 65818  86.4920  78.3227 0002272  98.9942 261.1449 13.24421188 21422
HULIANWANG DIGUI-84     
1 65819U 25220C   26066.23485981  .00000019  00000+0  99016-5 0  9999
2 65819  86.4858  78.2151 0002265  98.5082 261.6309 13.24421589 21426
HULIANWANG DIGUI-85     
1 65820U 25220D   26066.30280602  .00000041  00000+0  61131-4 0  9993
2 65820  86.4919  78.2873 0002266  99.2140 260.9250 13.24422121 21432
HULIANWANG DIGUI-86     
1 65821U 25220E   26066.29534090  .00000050  00000+0  82495-4 0  9991
2 65821  86.4897  78.2481 0002258  98.8942 261.2448 13.24420968 21439
HULIANWANG DIGUI-87     
1 65995U 25231A   26066.29718821 -.00000062  00000+0  13328-3 0  9993
2 65995  49.9992 181.3042 0000612 193.0944 166.9912 13.29330451 19337
HULIANWANG DIGUI-88     
1 65996U 25231B   26066.30556532 -.00000075  00000+0  10596-3 0  9993
2 65996  49.9979 181.3339 0000640 198.3115 161.7734 13.29329434 19335
HULIANWANG DIGUI-89     
1 65997U 25231C   26066.28883280 -.00000069  00000+0  11757-3 0  9997
2 65997  49.9957 181.2209 0000639 199.5956 160.4892 13.29330104 19338
HULIANWANG DIGUI-90     
1 65998U 25231D   26066.28047895 -.00000068  00000+0  12101-3 0  9995
2 65998  49.9986 181.2111 0000606 196.9880 163.0972 13.29330326 19338
HULIANWANG DIGUI-91     
1 65999U 25231E   26066.27212759 -.00000057  00000+0  14545-3 0  9990
2 65999  50.0005 181.1921 0000631 198.3270 161.7579 13.29330329 19330
HULIANWANG DIGUI-92     
1 66000U 25231F   26066.26376361 -.00000059  00000+0  14070-3 0  9998
2 66000  50.0046 181.1944 0000639 198.7497 161.3352 13.29330843 19333
HULIANWANG DIGUI-93     
1 66001U 25231G   26066.32227129 -.00000071  00000+0  11388-3 0  9996
2 66001  50.0013 180.8045 0000625 198.5050 161.5800 13.29329846 19346
HULIANWANG DIGUI-94     
1 66002U 25231H   26066.33059101 -.00000068  00000+0  12015-3 0  9995
2 66002  50.0052 180.8929 0000640 199.4429 160.6419 13.29331043 19346
HULIANWANG DIGUI-95     
1 66003U 25231J   26066.31406798 -.00000073  00000+0  11044-3 0  9999
2 66003  50.0025 180.7761 0000641 195.9366 164.1486 13.29325911 19342
HULIANWANG DIGUI-96     
1 66412U 25258A   26066.03682614 -.00000066  00000+0  12484-3 0  9995
2 66412  50.0047 302.0047 0000408 102.6023 257.4895 13.29331581 16147
